[{"OBJECT_NAME":"IRIDIUM 122","OBJECT_ID":"2017-061C","EPOCH":"2026-03-09T22:07:58.507680","MEAN_MOTION":14.34217131,"ECCENTRICITY":0.00019893,"INCLINATION":86.3911,"RA_OF_ASC_NODE":66.6833,"ARG_OF_PERICENTER":88.1776,"MEAN_ANOMALY":271.9648,"EPHEMERIS_TYPE":0,"CLASSIFICATION_TYPE":"U","NORAD_CAT_ID":42957,"ELEMENT_SET_NO":999,"REV_AT_EPOCH":44055,"BSTAR":-1.2173426e-5,"MEAN_MOTION_DOT":-1.4e-7,"MEAN_MOTION_DDOT":0},{"OBJECT_NAME":"ORBVIEW 2 (SEASTAR)","OBJECT_ID":"1997-037A","EPOCH":"2026-03-09T23:24:43.917984","MEAN_MOTION":14.35495219,"ECCENTRICITY":0.00030976,"INCLINATION":98.8568,"RA_OF_ASC_NODE":233.2949,"ARG_OF_PERICENTER":71.5555,"MEAN_ANOMALY":288.5967,"EPHEMERIS_TYPE":0,"CLASSIFICATION_TYPE":"U","NORAD_CAT_ID":24883,"ELEMENT_SET_NO":999,"REV_AT_EPOCH":50851,"BSTAR":0.0001511202,"MEAN_MOTION_DOT":3.88e-6,"MEAN_MOTION_DDOT":0}]
